[{"OBJECT_NAME":"STARLINK-35703","OBJECT_ID":"2025-288M","EPOCH":"2026-01-05T06:00:02.000160","MEAN_MOTION":15.44365078,"ECCENTRICITY":0.00011147,"INCLINATION":43.001,"RA_OF_ASC_NODE":26.2886,"ARG_OF_PERICENTER":259.1824,"MEAN_ANOMALY":58.7702,"EPHEMERIS_TYPE":0,"CLASSIFICATION_TYPE":"U","NORAD_CAT_ID":66970,"ELEMENT_SET_NO":999,"REV_AT_EPOCH":560,"BSTAR":-0.048652189,"MEAN_MOTION_DOT":-0.02043919,"MEAN_MOTION_DDOT":0},{"OBJECT_NAME":"STARLINK-35678","OBJECT_ID":"2025-288N","EPOCH":"2026-01-05T07:43:37.737120","MEAN_MOTION":15.50712159,"ECCENTRICITY":0.00012991,"INCLINATION":43.0007,"RA_OF_ASC_NODE":25.8666,"ARG_OF_PERICENTER":247.4317,"MEAN_ANOMALY":112.6406,"EPHEMERIS_TYPE":0,"CLASSIFICATION_TYPE":"U","NORAD_CAT_ID":66971,"ELEMENT_SET_NO":999,"REV_AT_EPOCH":554,"BSTAR":0.0027978373,"MEAN_MOTION_DOT":0.00168163,"MEAN_MOTION_DDOT":0},{"OBJECT_NAME":"STARLINK-34846","OBJECT_ID":"2025-288P","EPOCH":"2026-01-05T06:00:02.000160","MEAN_MOTION":15.43071082,"ECCENTRICITY":0.00016861,"INCLINATION":43.0004,"RA_OF_ASC_NODE":26.3424,"ARG_OF_PERICENTER":264.7653,"MEAN_ANOMALY":31.6839,"EPHEMERIS_TYPE":0,"CLASSIFICATION_TYPE":"U","NORAD_CAT_ID":66972,"ELEMENT_SET_NO":999,"REV_AT_EPOCH":560,"BSTAR":-0.057287138,"MEAN_MOTION_DOT":-0.02313693,"MEAN_MOTION_DDOT":0},{"OBJECT_NAME":"STARLINK-35778","OBJECT_ID":"2025-288Q","EPOCH":"2026-01-05T05:18:08.987040","MEAN_MOTION":15.40715116,"ECCENTRICITY":0.00011438,"INCLINATION":43.0027,"RA_OF_ASC_NODE":26.833,"ARG_OF_PERICENTER":244.2202,"MEAN_ANOMALY":115.8537,"EPHEMERIS_TYPE":0,"CLASSIFICATION_TYPE":"U","NORAD_CAT_ID":66973,"ELEMENT_SET_NO":999,"REV_AT_EPOCH":552,"BSTAR":0.0013875038,"MEAN_MOTION_DOT":0.00058127,"MEAN_MOTION_DDOT":0},{"OBJECT_NAME":"STARLINK-35780","OBJECT_ID":"2025-288R","EPOCH":"2026-01-05T06:00:02.000160","MEAN_MOTION":15.4063272,"ECCENTRICITY":0.00012539,"INCLINATION":43.0003,"RA_OF_ASC_NODE":26.6086,"ARG_OF_PERICENTER":271.5267,"MEAN_ANOMALY":275.0163,"EPHEMERIS_TYPE":0,"CLASSIFICATION_TYPE":"U","NORAD_CAT_ID":66974,"ELEMENT_SET_NO":999,"REV_AT_EPOCH":560,"BSTAR":0.0010006403,"MEAN_MOTION_DOT":0.0004163,"MEAN_MOTION_DDOT":0},{"OBJECT_NAME":"STARLINK-35777","OBJECT_ID":"2025-288S","EPOCH":"2026-01-05T06:00:02.000160","MEAN_MOTION":15.40669946,"ECCENTRICITY":0.00012219,"INCLINATION":43.0001,"RA_OF_ASC_NODE":26.5767,"ARG_OF_PERICENTER":258.0809,"MEAN_ANOMALY":300.8557,"EPHEMERIS_TYPE":0,"CLASSIFICATION_TYPE":"U","NORAD_CAT_ID":66975,"ELEMENT_SET_NO":999,"REV_AT_EPOCH":560,"BSTAR":0.00065105632,"MEAN_MOTION_DOT":0.00026961,"MEAN_MOTION_DDOT":0},{"OBJECT_NAME":"STARLINK-35772","OBJECT_ID":"2025-288T","EPOCH":"2026-01-04T18:38:30.228000","MEAN_MOTION":15.40713522,"ECCENTRICITY":6.085e-5,"INCLINATION":43.001,"RA_OF_ASC_NODE":31.2956,"ARG_OF_PERICENTER":349.3971,"MEAN_ANOMALY":10.6873,"EPHEMERIS_TYPE":0,"CLASSIFICATION_TYPE":"U","NORAD_CAT_ID":66976,"ELEMENT_SET_NO":999,"REV_AT_EPOCH":543,"BSTAR":0.0019472843,"MEAN_MOTION_DOT":0.00081954,"MEAN_MOTION_DDOT":0},{"OBJECT_NAME":"STARLINK-35770","OBJECT_ID":"2025-288U","EPOCH":"2026-01-01T14:00:43.463232","MEAN_MOTION":15.50604727,"ECCENTRICITY":0.000113,"INCLINATION":43.0009,"RA_OF_ASC_NODE":47.6983,"ARG_OF_PERICENTER":275.3451,"MEAN_ANOMALY":84.728,"EPHEMERIS_TYPE":0,"CLASSIFICATION_TYPE":"U","NORAD_CAT_ID":66977,"ELEMENT_SET_NO":999,"REV_AT_EPOCH":496,"BSTAR":0.0017973,"MEAN_MOTION_DOT":0.00106642,"MEAN_MOTION_DDOT":0},{"OBJECT_NAME":"STARLINK-35787","OBJECT_ID":"2025-288V","EPOCH":"2026-01-05T05:21:22.624992","MEAN_MOTION":15.40741175,"ECCENTRICITY":0.00014614,"INCLINATION":42.9989,"RA_OF_ASC_NODE":26.8512,"ARG_OF_PERICENTER":270.8433,"MEAN_ANOMALY":89.2256,"EPHEMERIS_TYPE":0,"CLASSIFICATION_TYPE":"U","NORAD_CAT_ID":66978,"ELEMENT_SET_NO":999,"REV_AT_EPOCH":552,"BSTAR":0.0015435179,"MEAN_MOTION_DOT":0.00064811,"MEAN_MOTION_DDOT":0},{"OBJECT_NAME":"STARLINK-36107","OBJECT_ID":"2025-288W","EPOCH":"2026-01-05T07:38:41.309952","MEAN_MOTION":15.50617879,"ECCENTRICITY":0.0001275,"INCLINATION":43.0005,"RA_OF_ASC_NODE":25.8383,"ARG_OF_PERICENTER":257.8796,"MEAN_ANOMALY":102.1922,"EPHEMERIS_TYPE":0,"CLASSIFICATION_TYPE":"U","NORAD_CAT_ID":66979,"ELEMENT_SET_NO":999,"REV_AT_EPOCH":554,"BSTAR":0.0022764381,"MEAN_MOTION_DOT":0.00135734,"MEAN_MOTION_DDOT":0},{"OBJECT_NAME":"STARLINK-36086","OBJECT_ID":"2025-288X","EPOCH":"2026-01-05T06:00:02.000160","MEAN_MOTION":15.40673685,"ECCENTRICITY":6.972e-5,"INCLINATION":42.9999,"RA_OF_ASC_NODE":26.5151,"ARG_OF_PERICENTER":260.3919,"MEAN_ANOMALY":323.4179,"EPHEMERIS_TYPE":0,"CLASSIFICATION_TYPE":"U","NORAD_CAT_ID":66980,"ELEMENT_SET_NO":999,"REV_AT_EPOCH":560,"BSTAR":0.00066291802,"MEAN_MOTION_DOT":0.00027463,"MEAN_MOTION_DDOT":0},{"OBJECT_NAME":"STARLINK-36142","OBJECT_ID":"2025-288Y","EPOCH":"2026-01-05T06:00:02.000160","MEAN_MOTION":15.40690609,"ECCENTRICITY":0.00010196,"INCLINATION":42.9998,"RA_OF_ASC_NODE":26.4552,"ARG_OF_PERICENTER":273.6036,"MEAN_ANOMALY":335.0452,"EPHEMERIS_TYPE":0,"CLASSIFICATION_TYPE":"U","NORAD_CAT_ID":66981,"ELEMENT_SET_NO":999,"REV_AT_EPOCH":560,"BSTAR":0.00058176156,"MEAN_MOTION_DOT":0.00024067,"MEAN_MOTION_DDOT":0},{"OBJECT_NAME":"STARLINK-36113","OBJECT_ID":"2025-288Z","EPOCH":"2026-01-05T06:00:02.000160","MEAN_MOTION":15.4472361,"ECCENTRICITY":9.673e-5,"INCLINATION":43.001,"RA_OF_ASC_NODE":26.2614,"ARG_OF_PERICENTER":266.0071,"MEAN_ANOMALY":63.2755,"EPHEMERIS_TYPE":0,"CLASSIFICATION_TYPE":"U","NORAD_CAT_ID":66982,"ELEMENT_SET_NO":999,"REV_AT_EPOCH":560,"BSTAR":-0.048007328,"MEAN_MOTION_DOT":-0.02042016,"MEAN_MOTION_DDOT":0},{"OBJECT_NAME":"STARLINK-36145","OBJECT_ID":"2025-288AA","EPOCH":"2026-01-05T07:36:14.623488","MEAN_MOTION":15.50664398,"ECCENTRICITY":0.00014704,"INCLINATION":43.0001,"RA_OF_ASC_NODE":25.8237,"ARG_OF_PERICENTER":195.0295,"MEAN_ANOMALY":165.0521,"EPHEMERIS_TYPE":0,"CLASSIFICATION_TYPE":"U","NORAD_CAT_ID":66983,"ELEMENT_SET_NO":999,"REV_AT_EPOCH":554,"BSTAR":0.0025528283,"MEAN_MOTION_DOT":0.00152845,"MEAN_MOTION_DDOT":0},{"OBJECT_NAME":"STARLINK-35591","OBJECT_ID":"2025-288AB","EPOCH":"2026-01-05T07:37:49.451808","MEAN_MOTION":15.47890597,"ECCENTRICITY":0.00014113,"INCLINATION":43.0003,"RA_OF_ASC_NODE":25.8318,"ARG_OF_PERICENTER":264.8427,"MEAN_ANOMALY":95.2271,"EPHEMERIS_TYPE":0,"CLASSIFICATION_TYPE":"U","NORAD_CAT_ID":66984,"ELEMENT_SET_NO":999,"REV_AT_EPOCH":554,"BSTAR":-0.0092471398,"MEAN_MOTION_DOT":-0.00465321,"MEAN_MOTION_DDOT":0},{"OBJECT_NAME":"STARLINK-36103","OBJECT_ID":"2025-288AC","EPOCH":"2026-01-05T04:30:12.677472","MEAN_MOTION":15.50681854,"ECCENTRICITY":8.698e-5,"INCLINATION":43.0001,"RA_OF_ASC_NODE":26.5741,"ARG_OF_PERICENTER":221.1774,"MEAN_ANOMALY":138.9021,"EPHEMERIS_TYPE":0,"CLASSIFICATION_TYPE":"U","NORAD_CAT_ID":66985,"ELEMENT_SET_NO":999,"REV_AT_EPOCH":552,"BSTAR":0.0023493076,"MEAN_MOTION_DOT":0.00140495,"MEAN_MOTION_DDOT":0}]
