STARLINK-35703          
1 66970U 25288M   26005.25002315 -.02043919  00000+0 -48652-1 0  9999
2 66970  43.0010  26.2886 0001114 259.1824  58.7702 15.44365078  5601
STARLINK-35678          
1 66971U 25288N   26005.32196455  .00168163  00000+0  27978-2 0  9991
2 66971  43.0007  25.8666 0001299 247.4317 112.6406 15.50712159  5547
STARLINK-34846          
1 66972U 25288P   26005.25002315 -.02313693  00000+0 -57287-1 0  9994
2 66972  43.0004  26.3424 0001686 264.7653  31.6839 15.43071082  5600
STARLINK-35778          
1 66973U 25288Q   26005.22093735  .00058127  00000+0  13875-2 0  9998
2 66973  43.0027  26.8330 0001143 244.2202 115.8537 15.40715116  5529
STARLINK-35780          
1 66974U 25288R   26005.25002315  .00041630  00000+0  10006-2 0  9990
2 66974  43.0003  26.6086 0001253 271.5267 275.0163 15.40632720  5608
STARLINK-35777          
1 66975U 25288S   26005.25002315  .00026961  00000+0  65106-3 0  9993
2 66975  43.0001  26.5767 0001221 258.0809 300.8557 15.40669946  5603
STARLINK-35772          
1 66976U 25288T   26004.77673875  .00081954  00000+0  19473-2 0  9993
2 66976  43.0010  31.2956 0000608 349.3971  10.6873 15.40713522  5437
STARLINK-35770          
1 66977U 25288U   26001.58383638  .00106642  00000+0  17973-2 0  9990
2 66977  43.0009  47.6983 0001130 275.3451  84.7280 15.50604727  4967
STARLINK-35787          
1 66978U 25288V   26005.22317853  .00064811  00000+0  15435-2 0  9994
2 66978  42.9989  26.8512 0001461 270.8433  89.2256 15.40741175  5521
STARLINK-36107          
1 66979U 25288W   26005.31853368  .00135734  00000+0  22764-2 0  9997
2 66979  43.0005  25.8383 0001275 257.8796 102.1922 15.50617879  5549
STARLINK-36086          
1 66980U 25288X   26005.25002315  .00027463  00000+0  66292-3 0  9994
2 66980  42.9999  26.5151 0000697 260.3919 323.4179 15.40673685  5600
STARLINK-36142          
1 66981U 25288Y   26005.25002315  .00024067  00000+0  58176-3 0  9994
2 66981  42.9998  26.4552 0001019 273.6036 335.0452 15.40690609  5608
STARLINK-36113          
1 66982U 25288Z   26005.25002315 -.02042016  00000+0 -48007-1 0  9993
2 66982  43.0010  26.2614 0000967 266.0071  63.2755 15.44723610  5608
STARLINK-36145          
1 66983U 25288AA  26005.31683592  .00152845  00000+0  25528-2 0  9995
2 66983  43.0001  25.8237 0001470 195.0295 165.0521 15.50664398  5543
STARLINK-35591          
1 66984U 25288AB  26005.31793347 -.00465321  00000+0 -92471-2 0  9995
2 66984  43.0003  25.8318 0001411 264.8427  95.2271 15.47890597  5547
STARLINK-36103          
1 66985U 25288AC  26005.18764673  .00140495  00000+0  23493-2 0  9999
2 66985  43.0001  26.5741 0000869 221.1774 138.9021 15.50681854  5525
